{"type":"FeatureCollection","features":[{"type":"Feature","properties":{"cod_uni":"217360","comisaria":"CPNP DE FAMILIA IQUITOS","denominacion":null,"departamento":"LORETO","provincia":"MAYNAS","distrito":"IQUITOS","tipo":"COMISARIA DE FAMILIA"},"geometry":{"type":"Point","coordinates":[-73.26491379999999,-3.7453528999999435]}},{"type":"Feature","properties":{"cod_uni":"222510","comisaria":"CPNP DE FAMILIA MOQUEGUA","denominacion":null,"departamento":"MOQUEGUA","provincia":"MARISCAL NIETO","distrito":"MOQUEGUA","tipo":"COMISARIA DE FAMILIA"},"geometry":{"type":"Point","coordinates":[-70.92963909999997,-17.19170299999996]}},{"type":"Feature","properties":{"cod_uni":"224490","comisaria":"CPNP FAMILIA DEL MINISTERIO DE LA MUJER","denominacion":null,"departamento":"LIMA","provincia":"LIMA","distrito":"LIMA","tipo":"COMISARIA DE FAMILIA"},"geometry":{"type":"Point","coordinates":[-77.03465669999997,-12.04830759999993]}},{"type":"Feature","properties":{"cod_uni":"224495","comisaria":"CPNP DE FAMILIA COLLIQUE","denominacion":null,"departamento":"LIMA","provincia":"LIMA","distrito":"COMAS","tipo":"COMISARIA DE FAMILIA"},"geometry":{"type":"Point","coordinates":[-77.01031619999998,-11.912994699999956]}},{"type":"Feature","properties":{"cod_uni":"224496","comisaria":"CPNP DE FAMILIA EL AGUSTINO","denominacion":null,"departamento":"LIMA","provincia":"LIMA","distrito":"EL AGUSTINO","tipo":"COMISARIA DE FAMILIA"},"geometry":{"type":"Point","coordinates":[-77.01123879999994,-12.051758499999949]}},{"type":"Feature","properties":{"cod_uni":"224494","comisaria":"CPNP DE FAMILIA INDEPENDENCIA","denominacion":null,"departamento":"LIMA","provincia":"LIMA","distrito":"INDEPENDENCIA","tipo":"COMISARIA DE FAMILIA"},"geometry":{"type":"Point","coordinates":[-77.05068759999995,-11.991692399999977]}},{"type":"Feature","properties":{"cod_uni":"224492","comisaria":"CPNP DE FAMILIA CANTO REY","denominacion":null,"departamento":"LIMA","provincia":"LIMA","distrito":"SAN JUAN DE LURIGANCHO","tipo":"COMISARIA DE FAMILIA"},"geometry":{"type":"Point","coordinates":[-76.99563600599998,-11.975853825999934]}},{"type":"Feature","properties":{"cod_uni":"224493","comisaria":"CPNP DE FAMILIA SAN JUAN DE MIRAFLORES","denominacion":null,"departamento":"LIMA","provincia":"LIMA","distrito":"SAN JUAN DE MIRAFLORES","tipo":"COMISARIA DE FAMILIA"},"geometry":{"type":"Point","coordinates":[-76.96637909999998,-12.166736299999968]}},{"type":"Feature","properties":{"cod_uni":"224491","comisaria":"CPNP DE FAMILIA VILLA EL SALVADOR","denominacion":null,"departamento":"LIMA","provincia":"LIMA","distrito":"VILLA EL SALVADOR","tipo":"COMISARIA DE FAMILIA"},"geometry":{"type":"Point","coordinates":[-76.93845109999995,-12.212670699999933]}},{"type":"Feature","properties":{"cod_uni":"216447","comisaria":"CPNP DE FAMILIA CHICLAYO","denominacion":null,"departamento":"LAMBAYEQUE","provincia":"CHICLAYO","distrito":"JOSE LEONARDO ORTIZ","tipo":"COMISARIA DE FAMILIA"},"geometry":{"type":"Point","coordinates":[-79.85357539999995,-6.749632899999938]}},{"type":"Feature","properties":{"cod_uni":"223139","comisaria":"CPNP DE FAMILIA TUMBES","denominacion":"SANTA ROSA DE LIMA","departamento":"TUMBES","provincia":"TUMBES","distrito":"TUMBES","tipo":"COMISARIA DE FAMILIA"},"geometry":{"type":"Point","coordinates":[-80.45186449999994,-3.572746699999925]}},{"type":"Feature","properties":{"cod_uni":"216939","comisaria":"CPNP DE FAMILIA TRUJILLO","denominacion":null,"departamento":"LA LIBERTAD","provincia":"TRUJILLO","distrito":"TRUJILLO","tipo":"COMISARIA DE FAMILIA"},"geometry":{"type":"Point","coordinates":[-79.02990619999997,-8.103753499999925]}},{"type":"Feature","properties":{"cod_uni":"222428","comisaria":"CPNP DE FAMILIA TACNA","denominacion":null,"departamento":"TACNA","provincia":"TACNA","distrito":"TACNA","tipo":"COMISARIA DE FAMILIA"},"geometry":{"type":"Point","coordinates":[-70.25556129999995,-18.007538299999965]}},{"type":"Feature","properties":{"cod_uni":"223423","comisaria":"CPNP DE FAMILIA ABANCAY","denominacion":null,"departamento":"APURIMAC","provincia":"ABANCAY","distrito":"ABANCAY","tipo":"COMISARIA DE FAMILIA"},"geometry":{"type":"Point","coordinates":[-72.88460449999997,-13.635910999999965]}},{"type":"Feature","properties":{"cod_uni":"223464","comisaria":"CPNP DE FAMILIA ANDAHUAYLAS","denominacion":null,"departamento":"APURIMAC","provincia":"ANDAHUAYLAS","distrito":"ANDAHUAYLAS","tipo":"COMISARIA DE FAMILIA"},"geometry":{"type":"Point","coordinates":[-73.37001111699993,-13.65330142299996]}},{"type":"Feature","properties":{"cod_uni":"000000","comisaria":"CPNP DE FAMILIA ALTO SELVA ALEGRE","denominacion":null,"departamento":"AREQUIPA","provincia":"AREQUIPA","distrito":"ALTO SELVA ALEGRE","tipo":"COMISARIA DE FAMILIA"},"geometry":{"type":"Point","coordinates":[-71.51873149999994,-16.38091799999995]}},{"type":"Feature","properties":{"cod_uni":"218861","comisaria":"CPNP DE FAMILIA AREQUIPA","denominacion":null,"departamento":"AREQUIPA","provincia":"AREQUIPA","distrito":"CAYMA","tipo":"COMISARIA DE FAMILIA"},"geometry":{"type":"Point","coordinates":[-71.53838139999993,-16.38105319999994]}},{"type":"Feature","properties":{"cod_uni":"226502","comisaria":"CPNP DE FAMILIA CAMANA","denominacion":null,"departamento":"AREQUIPA","provincia":"CAMANA","distrito":"CAMANA","tipo":"COMISARIA DE FAMILIA"},"geometry":{"type":"Point","coordinates":[-72.71131549999996,-16.627359299999966]}},{"type":"Feature","properties":{"cod_uni":"218894","comisaria":"CPNP DE FAMILIA EL PEDREGAL","denominacion":null,"departamento":"AREQUIPA","provincia":"CAYLLOMA","distrito":"MAJES","tipo":"COMISARIA DE FAMILIA"},"geometry":{"type":"Point","coordinates":[-72.19084329999998,-16.362232199999937]}},{"type":"Feature","properties":{"cod_uni":"218528","comisaria":"CPNP DE FAMILIA AYACUCHO","denominacion":null,"departamento":"AYACUCHO","provincia":"HUAMANGA","distrito":"AYACUCHO","tipo":"COMISARIA DE FAMILIA"},"geometry":{"type":"Point","coordinates":[-74.22735727299994,-13.150143577999927]}},{"type":"Feature","properties":{"cod_uni":"220766","comisaria":"CPNP DE FAMILIA HUANTA","denominacion":null,"departamento":"AYACUCHO","provincia":"HUANTA","distrito":"HUANTA","tipo":"COMISARIA DE FAMILIA"},"geometry":{"type":"Point","coordinates":[-74.24712469999997,-12.94155799999993]}},{"type":"Feature","properties":{"cod_uni":"223197","comisaria":"CPNP DE FAMILIA CAJAMARCA","denominacion":null,"departamento":"CAJAMARCA","provincia":"CAJAMARCA","distrito":"CAJAMARCA","tipo":"COMISARIA DE FAMILIA"},"geometry":{"type":"Point","coordinates":[-78.51258059999998,-7.159794999999974]}},{"type":"Feature","properties":{"cod_uni":"220499","comisaria":"CPNP DE FAMILIA CALLAO","denominacion":null,"departamento":"CALLAO","provincia":"CALLAO","distrito":"LA PERLA","tipo":"COMISARIA DE FAMILIA"},"geometry":{"type":"Point","coordinates":[-77.11368589999995,-12.073916899999972]}},{"type":"Feature","properties":{"cod_uni":"222127","comisaria":"CPNP DE FAMILIA HUARAZ","denominacion":null,"departamento":"ANCASH","provincia":"HUARAZ","distrito":"HUARAZ","tipo":"COMISARIA DE FAMILIA"},"geometry":{"type":"Point","coordinates":[-77.52431569999999,-9.529540999999938]}},{"type":"Feature","properties":{"cod_uni":"222210","comisaria":"CPNP DE FAMILIA CHIMBOTE","denominacion":null,"departamento":"ANCASH","provincia":"SANTA","distrito":"NUEVO CHIMBOTE","tipo":"COMISARIA DE FAMILIA"},"geometry":{"type":"Point","coordinates":[-78.52209109999995,-9.12745979999994]}},{"type":"Feature","properties":{"cod_uni":"217829","comisaria":"CPNP DE FAMILIA HUANCAYO","denominacion":null,"departamento":"JUNIN","provincia":"HUANCAYO","distrito":"HUANCAYO","tipo":"COMISARIA DE FAMILIA"},"geometry":{"type":"Point","coordinates":[-75.20451239999994,-12.065398499999958]}},{"type":"Feature","properties":{"cod_uni":"217928","comisaria":"CPNP DE FAMILIA CHANCHAMAYO","denominacion":null,"departamento":"JUNIN","provincia":"CHANCHAMAYO","distrito":"CHANCHAMAYO","tipo":"COMISARIA DE FAMILIA"},"geometry":{"type":"Point","coordinates":[-75.33082339899994,-11.056065699999976]}},{"type":"Feature","properties":{"cod_uni":"221952","comisaria":"CPNP DE FAMILIA MOYOBAMBA","denominacion":null,"departamento":"SAN MARTIN","provincia":"MOYOBAMBA","distrito":"MOYOBAMBA","tipo":"COMISARIA DE FAMILIA"},"geometry":{"type":"Point","coordinates":[-76.97100029999996,-6.046779399999934]}},{"type":"Feature","properties":{"cod_uni":"221876","comisaria":"CPNP DE FAMILIA TARAPOTO","denominacion":null,"departamento":"SAN MARTIN","provincia":"SAN MARTIN","distrito":"TARAPOTO","tipo":"COMISARIA DE FAMILIA"},"geometry":{"type":"Point","coordinates":[-76.37369349999994,-6.486253399999953]}},{"type":"Feature","properties":{"cod_uni":"222005","comisaria":"CPNP DE FAMILIA CHACHAPOYAS","denominacion":null,"departamento":"AMAZONAS","provincia":"CHACHAPOYAS","distrito":"CHACHAPOYAS","tipo":"COMISARIA DE FAMILIA"},"geometry":{"type":"Point","coordinates":[-77.87333479999995,-6.22821579999993]}},{"type":"Feature","properties":{"cod_uni":"222030","comisaria":"CPNP DE FAMILIA BAGUA GRANDE","denominacion":null,"departamento":"AMAZONAS","provincia":"UTCUBAMBA","distrito":"BAGUA GRANDE","tipo":"COMISARIA DE FAMILIA"},"geometry":{"type":"Point","coordinates":[-78.44557419999995,-5.752118799999948]}},{"type":"Feature","properties":{"cod_uni":"223524","comisaria":"CPNP DE FAMILIA ICA","denominacion":null,"departamento":"ICA","provincia":"ICA","distrito":"ICA","tipo":"COMISARIA DE FAMILIA"},"geometry":{"type":"Point","coordinates":[-75.73195339999995,-14.065214899999944]}},{"type":"Feature","properties":{"cod_uni":"219239","comisaria":"CPNP DE FAMILIA PUNO","denominacion":null,"departamento":"PUNO","provincia":"PUNO","distrito":"PUNO","tipo":"COMISARIA DE FAMILIA"},"geometry":{"type":"Point","coordinates":[-70.02426789999998,-15.836264899999946]}},{"type":"Feature","properties":{"cod_uni":"219302","comisaria":"CPNP DE FAMILIA JULIACA","denominacion":null,"departamento":"PUNO","provincia":"SAN ROMAN","distrito":"JULIACA","tipo":"COMISARIA DE FAMILIA"},"geometry":{"type":"Point","coordinates":[-70.13732699999997,-15.491595699999948]}},{"type":"Feature","properties":{"cod_uni":"222591","comisaria":"CPNP DE FAMILIA PUERTO MALDONADO","denominacion":null,"departamento":"MADRE DE DIOS","provincia":"TAMBOPATA","distrito":"TAMBOPATA","tipo":"COMISARIA DE FAMILIA"},"geometry":{"type":"Point","coordinates":[-69.18902329999997,-12.601582699999938]}},{"type":"Feature","properties":{"cod_uni":"218051","comisaria":"CPNP DE FAMILIA HUANCAVELICA","denominacion":null,"departamento":"HUANCAVELICA","provincia":"HUANCAVELICA","distrito":"HUANCAVELICA","tipo":"COMISARIA DE FAMILIA"},"geometry":{"type":"Point","coordinates":[-74.96898839099998,-12.78592184699994]}},{"type":"Feature","properties":{"cod_uni":"217527","comisaria":"CPNP DE FAMILIA TINGO MARIA","denominacion":null,"departamento":"HUANUCO","provincia":"LEONCIO PRADO","distrito":"RUPA-RUPA","tipo":"COMISARIA DE FAMILIA"},"geometry":{"type":"Point","coordinates":[-75.99678639999996,-9.291406499999937]}},{"type":"Feature","properties":{"cod_uni":"217479","comisaria":"CPNP DE FAMILIA HUANUCO","denominacion":null,"departamento":"HUANUCO","provincia":"HUANUCO","distrito":"HUANUCO","tipo":"COMISARIA DE FAMILIA"},"geometry":{"type":"Point","coordinates":[-76.23504439999994,-9.920851299999981]}},{"type":"Feature","properties":{"cod_uni":"218309","comisaria":"CPNP DE FAMILIA QUILLABAMBA","denominacion":null,"departamento":"CUSCO","provincia":"LA CONVENCION","distrito":"SANTA ANA","tipo":"COMISARIA DE FAMILIA"},"geometry":{"type":"Point","coordinates":[-72.69692069999996,-12.857173599999953]}},{"type":"Feature","properties":{"cod_uni":"216059","comisaria":"CPNP DE FAMILIA PIURA","denominacion":null,"departamento":"PIURA","provincia":"PIURA","distrito":"PIURA","tipo":"COMISARIA DE FAMILIA"},"geometry":{"type":"Point","coordinates":[-80.65282049999996,-5.185013699999956]}},{"type":"Feature","properties":{"cod_uni":"220704","comisaria":"CPNP DE FAMILIA PICHARI","denominacion":null,"departamento":"CUSCO","provincia":"LA CONVENCION","distrito":"PICHARI","tipo":"COMISARIA DE FAMILIA"},"geometry":{"type":"Point","coordinates":[-73.82961659999995,-12.519974599999955]}},{"type":"Feature","properties":{"cod_uni":"218187","comisaria":"CPNP DE FAMILIA CUSCO","denominacion":null,"departamento":"CUSCO","provincia":"CUSCO","distrito":"WANCHAQ","tipo":"COMISARIA DE FAMILIA"},"geometry":{"type":"Point","coordinates":[-71.96228129999997,-13.528256699999929]}},{"type":"Feature","properties":{"cod_uni":"218276","comisaria":"CPNP DE FAMILIA SICUANI","denominacion":null,"departamento":"CUSCO","provincia":"CANCHIS","distrito":"SICUANI","tipo":"COMISARIA DE FAMILIA"},"geometry":{"type":"Point","coordinates":[-71.22436919999996,-14.279380599999968]}},{"type":"Feature","properties":{"cod_uni":"221770","comisaria":"CPNP DE FAMILIA YANACANCHA PASCO","denominacion":null,"departamento":"PASCO","provincia":"PASCO","distrito":"YANACANCHA","tipo":"COMISARIA DE FAMILIA"},"geometry":{"type":"Point","coordinates":[-76.25205109999996,-10.663297099999966]}},{"type":"Feature","properties":{"cod_uni":"224489","comisaria":"CPNP DE FAMILIA LIMA","denominacion":"BERTHA GONZALES POSADA EYZAGUIRRE","departamento":"LIMA","provincia":"LIMA","distrito":"LIMA","tipo":"COMISARIA DE FAMILIA"},"geometry":{"type":"Point","coordinates":[-77.03417769999999,-12.057821399999966]}}]}